ID;NOM;ADRESSE;CP;INSEE;COMMUNE;CATEGORIE;SS_CATEG;CONDITIONS;SOURCE;CAPACITE;OUVERTURE;DESCRIPTIF;GESTIONNAIRE;TEL;Y_LAT;X_LONG
4669;Véloparc Landreau;18 Rue du Moulin Neuf;44300;440109;Nantes;Equipements vélo;Stationnement vélo;Accès libre;Nantes Métropole;4;7 jours sur 7. 24 h sur 24.;Consigne;https://www.tan.fr/;02 40 444 444;47,231937260431;-1,51567410784259
4670;Véloparc Santos Dumont;83 Rue des Renards;44300;440109;Nantes;Equipements vélo;Stationnement vélo;Accès libre;Nantes Métropole;12;7 jours sur 7. 24 h sur 24.;Consigne;https://www.tan.fr/;02 40 444 444;47,2593409385311;-1,56817516887492
4671;Véloparc Joliverie;141B Route de Clisson;44200;440109;Nantes;Equipements vélo;Stationnement vélo;Accès libre;Nantes Métropole;12;7 jours sur 7. 24 h sur 24.;Consigne;https://www.tan.fr/;02 40 444 444;47,1894640822829;-1,51713736252049
4672;Véloparc Gare de Chantenay;6 Rue de la Gare de Chantenay;44100;440109;Nantes;Equipements vélo;Stationnement vélo;Accès libre;Nantes Métropole;6;7 jours sur 7. 24 h sur 24.;Consigne;https://www.tan.fr/;02 40 444 444;47,1974776928454;-1,59432063221902
4673;Véloparc Croix Bonneau;162 Rue des Pavillons;44100;440109;Nantes;Equipements vélo;Stationnement vélo;Accès libre;Nantes Métropole;4;7 jours sur 7. 24 h sur 24.;Consigne;https://www.tan.fr/;02 40 444 444;47,2093793132118;-1,59590571933794
4674;Véloparc Egalité;6 Boulevard Léon Jouhaux;44100;440109;Nantes;Equipements vélo;Stationnement vélo;Accès libre;Nantes Métropole;8;7 jours sur 7. 24 h sur 24.;Consigne;https://www.tan.fr/;02 40 444 444;47,2096389969219;-1,58893567189702
4675;Véloparc Grammoire;Boulevard Guichet Sérex;44120;440215;Vertou;Equipements vélo;Stationnement vélo;Accès libre;Nantes Métropole;8;7 jours sur 7. 24 h sur 24.;Consigne;https://www.tan.fr/;02 40 444 444;47,1648832280468;-1,48057280724925
4676;Véloparc Croix Jeannette;2 Rue Eugène Pottier;44340;440020;Bouguenais;Equipements vélo;Stationnement vélo;Accès libre;Nantes Métropole;4;7 jours sur 7. 24 h sur 24.;Consigne;https://www.tan.fr/;02 40 444 444;47,1753883030413;-1,62381748548106
4677;Véloparc Les Couëts;2 Rue de la Chapelle;44340;440020;Bouguenais;Equipements vélo;Stationnement vélo;Accès libre;Nantes Métropole;6;7 jours sur 7. 24 h sur 24.;Consigne;https://www.tan.fr/;02 40 444 444;47,181039990182;-1,58619215993453
4679;Véloparc Durantière piscine;15 Rue de la Durantière;44100;440109;Nantes;Equipements vélo;Stationnement vélo;Accès libre;Nantes Métropole;6;7 jours sur 7. 24 h sur 24.;Consigne;https://www.tan.fr/;02 40 444 444;47,2130698600424;-1,5987433387711
4680;Véloparc La Montagne Pompiers;4 Rue du Chat qui Guette;44620;440101;La Montagne;Equipements vélo;Stationnement vélo;Accès libre;Nantes Métropole;6;7 jours sur 7. 24 h sur 24.;Consigne;https://www.tan.fr/;02 40 444 444;47,1884394787049;-1,68921547002753
4682;Véloparc Zola;5 Rue des Renardières;44100;440109;Nantes;Equipements vélo;Stationnement vélo;Accès libre;Nantes Métropole;10;7 jours sur 7. 24 h sur 24.;Consigne;https://www.tan.fr/;02 40 444 444;47,2139678598976;-1,58630574491059
4684;Véloparc Neustrie;Rue Christophe Colomb;44340;440020;Bouguenais;Equipements vélo;Stationnement vélo;Accès libre;Nantes Métropole;10;7 jours sur 7. 24 h sur 24.;Consigne;https://www.tan.fr/;02 40 444 444;47,1768127291306;-1,5931008293991
4685;Véloparc Mitterrand;Boulevard Salvador Allende;44800;440162;Saint-Herblain;Equipements vélo;Stationnement vélo;Accès libre;Nantes Métropole;6;7 jours sur 7. 24 h sur 24.;Consigne;https://www.tan.fr/;02 40 444 444;47,2220008775796;-1,63953071741886
4687;Véloparc Chapeau vernis;141B Route de Clisson;44230;440190;Saint-Sébastien-sur-Loire;Equipements vélo;Stationnement vélo;Accès libre;Nantes Métropole;4;7 jours sur 7. 24 h sur 24.;Consigne;https://www.tan.fr/;02 40 444 444;47,1893474163775;-1,51129607032802
4688;Véloparc Beauséjour;Rue du Chêne Vert;44100;440109;Nantes;Equipements vélo;Stationnement vélo;Accès libre;Nantes Métropole;4;7 jours sur 7. 24 h sur 24.;Consigne;https://www.tan.fr/;02 40 444 444;47,2385866318548;-1,5875971686372
4689;Véloparc Saint Félix;2 Boulevard Michelet;44000;440109;Nantes;Equipements vélo;Stationnement vélo;Accès libre;Nantes Métropole;4;7 jours sur 7. 24 h sur 24.;Consigne;https://www.tan.fr/;02 40 444 444;47,2309463760357;-1,5567463855788
4691;Véloparc Michelet;41 Boulevard Michelet;44300;440109;Nantes;Equipements vélo;Stationnement vélo;Accès libre;Nantes Métropole;6;7 jours sur 7. 24 h sur 24.;Consigne;https://www.tan.fr/;02 40 444 444;47,2347397901383;-1,55679328902158
4693;Véloparc Ragon;33 Rue Ernest Sauvestre;44400;440143;Rezé;Equipements vélo;Stationnement vélo;Accès libre;Nantes Métropole;10;7 jours sur 7. 24 h sur 24.;Consigne;https://www.tan.fr/;02 40 444 444;47,1653708798508;-1,54222050358576
4694;Véloparc Papotière;20 Rue de la Planchonnais;44980;440172;Sainte-Luce-sur-Loire;Equipements vélo;Stationnement vélo;Accès libre;Nantes Métropole;6;7 jours sur 7. 24 h sur 24.;Consigne;https://www.tan.fr/;02 40 444 444;47,2532938421275;-1,4748634235678
4696;Véloparc Place du Vieux Doulon;3 Boulevard du Manoir Saint-Lo;44300;440109;Nantes;Equipements vélo;Stationnement vélo;Accès libre;Nantes Métropole;4;7 jours sur 7. 24 h sur 24.;Consigne;https://www.tan.fr/;02 40 444 444;47,2355803942804;-1,50396829907476
4697;Véloparc Gare de Chantenay;6 Rue de la Gare de Chantenay;44100;440109;Nantes;Equipements vélo;Stationnement vélo;Accès libre;Nantes Métropole;4;7 jours sur 7. 24 h sur 24.;Consigne;https://www.tan.fr/;02 40 444 444;47,1976767160305;-1,59432983478804
4698;Véloparc Rue du Prieuré;2G Avenue du Onze Novembre;44640;440166;Saint-Jean-de-Boiseau;Equipements vélo;Stationnement vélo;Accès libre;Nantes Métropole;4;7 jours sur 7. 24 h sur 24.;Consigne;https://www.tan.fr/;02 40 444 444;47,1919584946688;-1,69665947853245
4699;Véloparc Maillardière;29 Rue de la Maillardière;44840;440198;Les Sorinières;Equipements vélo;Stationnement vélo;Accès libre;Nantes Métropole;4;7 jours sur 7. 24 h sur 24.;Consigne;https://www.tan.fr/;02 40 444 444;47,1571884416442;-1,52299322686504
4700;Véloparc Papillons;50 Rue des Papillons;44840;440198;Les Sorinières;Equipements vélo;Stationnement vélo;Accès libre;Nantes Métropole;4;7 jours sur 7. 24 h sur 24.;Consigne;https://www.tan.fr/;02 40 444 444;47,1477594251696;-1,52095767496549
4702;Véloparc La Chantrerie;Route de Gachet;44300;440109;Nantes;Equipements vélo;Stationnement vélo;Accès libre;Nantes Métropole;12;7 jours sur 7. 24 h sur 24.;Collectif abrité;https://www.tan.fr/;02 40 444 444;47,2822591301244;-1,5178668774436
4703;Véloparc La Chantrerie;Route de Gachet;44300;440109;Nantes;Equipements vélo;Stationnement vélo;Gratuit par badge;Nantes Métropole;12;7 jours sur 7. 24 h sur 24.;collectif sécurisé;https://www.tan.fr/;02 40 444 444;47,28211961337;-1,51767306531112
4704;Véloparc Gare Bouaye;65 Rue de la Gare;44830;440018;Bouaye;Equipements vélo;Stationnement vélo;Gratuit par badge;Nantes Métropole;12;7 jours sur 7. 24 h sur 24.;collectif sécurisé;https://www.tan.fr/;02 40 444 444;47,1381893646589;-1,68120557976484
4707;Véloparc Gare maritime;Quai Ernest Renaud;44100;440109;Nantes;Equipements vélo;Stationnement vélo;Accès libre;Nantes Métropole;12;7 jours sur 7. 24 h sur 24.;Consigne;https://www.tan.fr/;02 40 444 444;47,2062720037518;-1,57271641865286
4708;Parking Gare nord;51 Boulevard de Stalingrad;44000;440109;Nantes;Equipements vélo;Stationnement vélo;Payant;Nantes Métropole;87;7 jours sur 7. 24 h sur 24.;collectif sécurisé;https://www.resaplace.com/;02 40 74 23 05;47,2173064933529;-1,54344400552645
4709;Parking Gare nord;51 Boulevard de Stalingrad;44000;440109;Nantes;Equipements vélo;Stationnement vélo;Accès libre;Nantes Métropole;222;7 jours sur 7. 24 h sur 24.;Collectif abrité;https://www.resaplace.com/;02 40 74 23 05;47,2173064933529;-1,54344400552645
4710;Véloparc Saint Jean de Boiseau;2G Avenue du Onze Novembre;44640;440166;Saint-Jean-de-Boiseau;Equipements vélo;Stationnement vélo;Accès libre;Nantes Métropole;4;7 jours sur 7. 24 h sur 24.;Consigne;https://www.tan.fr/;02 40 444 444;47,1913349417818;-1,71207078123501
4711;Véloparc Souillarderie;7 Rue des Tamaris;44300;440109;Nantes;Equipements vélo;Stationnement vélo;Accès libre;Nantes Métropole;4;7 jours sur 7. 24 h sur 24.;Consigne;https://www.tan.fr/;02 40 444 444;47,2379873571532;-1,51609092250636
4712;Véloparc Bout des Pavés;42 Boulevard de la Chauvinière;44300;440109;Nantes;Equipements vélo;Stationnement vélo;Accès libre;Nantes Métropole;6;7 jours sur 7. 24 h sur 24.;Consigne;https://www.tan.fr/;02 40 444 444;47,2531822297812;-1,57599658083877
4713;Véloparc Pont Rousseau;Rue de la Gare;44400;440143;Rezé;Equipements vélo;Stationnement vélo;Accès libre;Nantes Métropole;12;7 jours sur 7. 24 h sur 24.;Consigne;https://www.tan.fr/;02 40 444 444;47,1931316450845;-1,54879735462731
4714;Véloparc Durantière;33 Rue de la Durantière;44100;440109;Nantes;Equipements vélo;Stationnement vélo;Accès libre;Nantes Métropole;4;7 jours sur 7. 24 h sur 24.;Consigne;https://www.tan.fr/;02 40 444 444;47,2131821420844;-1,60022968798057
4715;Véloparc Coueron Even;9 Place Charles De Gaulle;44220;440047;Couëron;Equipements vélo;Stationnement vélo;Accès libre;Nantes Métropole;6;7 jours sur 7. 24 h sur 24.;Consigne;https://www.tan.fr/;02 40 444 444;47,2120550962799;-1,72697212765254
4716;Véloparc Trentemoult Roquios;1 Allée Claude Choëmet;44400;440143;Rezé;Equipements vélo;Stationnement vélo;Accès libre;Nantes Métropole;8;7 jours sur 7. 24 h sur 24.;Collectif abrité;https://www.tan.fr/;02 40 444 444;47,1952588328813;-1,57811271276998
4717;Véloparc Frachon;Boulevard Salvador Allende;44800;440162;Saint-Herblain;Equipements vélo;Stationnement vélo;Accès libre;Nantes Métropole;10;7 jours sur 7. 24 h sur 24.;Collectif abrité;https://www.tan.fr/;02 40 444 444;47,2188442339937;-1,62147107652606
4718;Véloparc Neruda;Boulevard Salvador Allende;44800;440162;Saint-Herblain;Equipements vélo;Stationnement vélo;Accès libre;Nantes Métropole;10;7 jours sur 7. 24 h sur 24.;Collectif abrité;https://www.tan.fr/;02 40 444 444;47,2179398953252;-1,61426165370435
4721;Véloparc Gare de Bouaye;65 Rue de la Gare;44830;440018;Bouaye;Equipements vélo;Stationnement vélo;Accès libre;Nantes Métropole;12;7 jours sur 7. 24 h sur 24.;Collectif abrité;https://www.tan.fr/;02 40 444 444;47,138233013834;-1,68128801895795
4722;Véloparc Gare de Coueron;108 Rue Alexandre Olivier;44220;440047;Couëron;Equipements vélo;Stationnement vélo;Accès libre;Nantes Métropole;12;7 jours sur 7. 24 h sur 24.;Collectif abrité;https://www.tan.fr/;02 40 444 444;47,2217826543592;-1,72352735205662
4723;Véloparc Gare de Thouaé;Rue des Ponts;44470;440204;Thouaré-sur-Loire;Equipements vélo;Stationnement vélo;Gratuit par badge;Nantes Métropole;12;7 jours sur 7. 24 h sur 24.;collectif sécurisé;https://www.tan.fr/;02 40 444 444;47,2650752390025;-1,44077389451817
4724;Véloparc Gare de Vertou;10 Impasse de la Gare;44120;440215;Vertou;Equipements vélo;Stationnement vélo;Accès libre;Nantes Métropole;15;7 jours sur 7. 24 h sur 24.;Collectif abrité;http://www.ter.sncf.com/pays-de-la-loire/;08 10 32 43 24;47,1858630613677;-1,47804183990209
4725;Véloparc Pas enchantés;16 Rue du Docteur Paul Michaux;44230;440190;Saint-Sébastien-sur-Loire;Equipements vélo;Stationnement vélo;Accès libre;Nantes Métropole;10;7 jours sur 7. 24 h sur 24.;Collectif abrité;http://www.ter.sncf.com/pays-de-la-loire/;08 10 32 43 24;47,2066732361951;-1,51061580824369
4726;Véloparc Goudy;11 Rue Gabriel Goudy;44200;440109;Nantes;Equipements vélo;Stationnement vélo;Accès libre;Nantes Métropole;24;7 jours sur 7. 24 h sur 24.;Collectif abrité;https://www.tan.fr/;02 40 444 444;47,1956815594464;-1,54079172323638
4727;Véloparc Gare de Chantenay;6 Rue de la Gare de Chantenay;44100;440109;Nantes;Equipements vélo;Stationnement vélo;Accès libre;Nantes Métropole;8;7 jours sur 7. 24 h sur 24.;Collectif abrité;https://www.tan.fr/;02 40 444 444;47,1972833739648;-1,59460859999199
4728;Parking Gare sud 4;Rue Marcel Paul;44000;440109;Nantes;Equipements vélo;Stationnement vélo;Gratuit par badge;Nantes Métropole;50;7 jours sur 7. 24 h sur 24.;Collectif sécurisé;https://www.resaplace.com/;02 40 74 23 05;47,2150965513618;-1,53799068249962
4729;Véloparc Le Cardo;1 Esplanade du Cardo;44700;440114;Orvault;Equipements vélo;Stationnement vélo;Accès libre;Nantes Métropole;8;7 jours sur 7. 24 h sur 24.;collectif sécurisé;https://www.tan.fr/;02 40 444 444;47,2623915691058;-1,5844044179263
4730;Véloparc Mitterrand;7 Rue Virginia Woolf;44800;440162;Saint-Herblain;Equipements vélo;Stationnement vélo;Accès libre;Nantes Métropole;10;7 jours sur 7. 24 h sur 24.;collectif sécurisé;https://www.tan.fr/;02 40 444 444;47,2220042659758;-1,63924587675425
4731;Parking Cité des Congrès;3 Rue de Valmy;44000;440109;Nantes;Equipements vélo;Stationnement vélo;Gratuit par badge;Nantes Métropole;29;7 jours sur 7. 24 h sur 24.;collectif sécurisé;http://www.velos-nantes.fr/;02 51 84 94 51;47,2136446636446;-1,54408374199817
4732;Parking Commerce;17 Place du Commerce;44000;440109;Nantes;Equipements vélo;Stationnement vélo;Payant;Nantes Métropole;100;7 jours sur 7. 24 h sur 24.;collectif sécurisé;http://www.velos-nantes.fr/;02 51 84 94 51;47,213319560977;-1,55780982208116
4733;Parking Decré / Bouffay;18 Rue du Moulin;44000;440109;Nantes;Equipements vélo;Stationnement vélo;Payant;Nantes Métropole;68;7 jours sur 7. 24 h sur 24.;collectif sécurisé;http://www.velos-nantes.fr/;02 51 84 94 51;47,2166660839753;-1,55423649455925
4734;Parking Foch Cathédrale;6 Rue Sully;44000;440109;Nantes;Equipements vélo;Stationnement vélo;Payant;Nantes Métropole;67;7 jours sur 7. 24 h sur 24.;collectif sécurisé;http://www.velos-nantes.fr/;02 51 84 94 51;47,2210181386105;-1,55126383584909
4735;Parking Graslin;2 Rue Louis Préaubert;44000;440109;Nantes;Equipements vélo;Stationnement vélo;Payant;Nantes Métropole;27;7 jours sur 7. 24 h sur 24.;collectif sécurisé;http://www.velos-nantes.fr/;02 51 84 94 51;47,2145970240282;-1,56229636076085
4736;Parking les Machines;49 Rue la Tour d'Auvergne;44200;440109;Nantes;Equipements vélo;Stationnement vélo;Accès libre;Nantes Métropole;70;7 jours sur 7. 24 h sur 24.;collectif sécurisé;https://www.resaplace.com/;02 40 74 23 05;47,2058258245926;-1,56258627690313
4737;Parking Médiathèque;37 Quai de la Fosse;44000;440109;Nantes;Equipements vélo;Stationnement vélo;Payant;Nantes Métropole;81;7 jours sur 7. 24 h sur 24.;collectif sécurisé;http://www.velos-nantes.fr/;02 51 84 94 51;47,2108424882587;-1,56230757471655
4738;Parking Talensac;9 Rue Le Nôtre;44000;440109;Nantes;Equipements vélo;Stationnement vélo;Gratuit par badge;Nantes Métropole;43;7 jours sur 7. 24 h sur 24.;collectif sécurisé;http://www.velos-nantes.fr/;02 51 84 94 51;47,2199027543669;-1,55769327865413
4739;Parking Bretagne;2 Rue de l'Abreuvoir;44000;440109;Nantes;Equipements vélo;Stationnement vélo;Gratuit par badge;Nantes Métropole;85;7 jours sur 7. 24 h sur 24.;collectif sécurisé;http://www.velos-nantes.fr/;02 51 84 94 51;47,2178043413193;-1,55831606085806
4740;Véloparc Haluchère;27 Rue du Ranzai;44300;440109;Nantes;Equipements vélo;Stationnement vélo;Accès libre;Nantes Métropole;20;7 jours sur 7. 24 h sur 24.;Collectif abrité;https://www.tan.fr/;02 40 444 444;47,2498994730616;-1,52325034035658
4741;Véloparc Haluchère;15 Rue de la Petite Baratte;44300;440109;Nantes;Equipements vélo;Stationnement vélo;Accès libre;Nantes Métropole;30;7 jours sur 7. 24 h sur 24.;collectif sécurisé;https://www.tan.fr/;02 40 444 444;47,249293353142;-1,52349209556796
4742;Véloparc Ranzay;Route de Saint Joseph;44300;440109;Nantes;Equipements vélo;Stationnement vélo;Accès libre;Nantes Métropole;30;7 jours sur 7. 24 h sur 24.;Collectif abrité;https://www.tan.fr/;02 40 444 444;47,253066262606;-1,53019929058564
4743;Véloparc Marcel Paul;73 Boulevard Marcel Paul;44800;440162;Saint-Herblain;Equipements vélo;Stationnement vélo;Gratuit par badge;Nantes Métropole;20;7 jours sur 7. 24 h sur 24.;collectif sécurisé;https://www.tan.fr/;02 40 444 444;47,2457701105181;-1,61752450479839
4746;Véloparc Corbinerie;123 Rue Ernest Sauvestre;44400;440143;Rezé;Equipements vélo;Stationnement vélo;Accès libre;Nantes Métropole;6;7 jours sur 7. 24 h sur 24.;Consigne;https://www.tan.fr/;02 40 444 444;47,1617798231931;-1,54191716817065
4747;Véloparc Rouet;50 Rue des Papillons;44840;440198;Les Sorinières;Equipements vélo;Stationnement vélo;Accès libre;Nantes Métropole;6;7 jours sur 7. 24 h sur 24.;Consigne;https://www.tan.fr/;02 40 444 444;47,1467359959817;-1,51893503253335
4748;Véloparc Rue des prés;4 Rue des Prés;44830;440024;Brains;Equipements vélo;Stationnement vélo;Accès libre;Nantes Métropole;4;7 jours sur 7. 24 h sur 24.;Consigne;https://www.tan.fr/;02 40 444 444;47,1694367224748;-1,72293193757284
4750;Parking Feydeau;Rue Léon Maître;44000;440109;Nantes;Equipements vélo;Stationnement vélo;Payant;Nantes Métropole;20;7 jours sur 7. 24 h sur 24.;collectif sécurisé;http://www.velos-nantes.fr/;02 51 84 94 51;47,2140734974024;-1,55260876888063
4802;Véloparc Embellie;20 Allée de l'Embellie;44300;440109;Nantes;Equipements vélo;Stationnement vélo;Accès libre;Nantes Métropole;5;7 jours sur 7. 24 h sur 24.;Consigne;https://www.tan.fr/;02 40 444 444;47,2677968258863;-1,51652046932564
4803;Véloparc Le Cardo;1 Esplanade du Cardo;44700;440114;Orvault;Equipements vélo;Stationnement vélo;Accès libre;Nantes Métropole;3;7 jours sur 7. 24 h sur 24.;Consigne;https://www.tan.fr/;02 40 444 444;47,2618404296482;-1,58460891525021
4804;Véloparc Chêne des Anglais;3 Rue Eugène Thomas;44300;440109;Nantes;Equipements vélo;Stationnement vélo;Accès libre;Nantes Métropole;4;7 jours sur 7. 24 h sur 24.;Consigne;https://www.tan.fr/;02 40 444 444;47,2616163779118;-1,57362164399881
4805;Véloparc Tertre;Boulevard Salvador Allende;44800;440162;Saint-Herblain;Equipements vélo;Stationnement vélo;Accès libre;Nantes Métropole;10;7 jours sur 7. 24 h sur 24.;Collectif abrité;https://www.tan.fr/;02 40 444 444;47,214316930441;-1,60795992997358
4806;Véloparc Place Viarme;22 Place Viarme;44000;440109;Nantes;Equipements vélo;Stationnement vélo;Accès libre;Nantes Métropole;3;7 jours sur 7. 24 h sur 24.;Consigne;https://www.tan.fr/;02 40 444 444;47,2216185521861;-1,56321508406336
4807;Véloparc Boulevard de Doulon;1 Rue Julien Douillard;44000;440109;Nantes;Equipements vélo;Stationnement vélo;Accès libre;Nantes Métropole;6;7 jours sur 7. 24 h sur 24.;Consigne;https://www.tan.fr/;02 40 444 444;47,2239764550617;-1,52011737388487
4808;Véloparc Gare maritime;2 Rue Meuris;44000;440109;Nantes;Equipements vélo;Stationnement vélo;Accès libre;Nantes Métropole;6;7 jours sur 7. 24 h sur 24.;Consigne;https://www.tan.fr/;02 40 444 444;47,2074270791265;-1,57229237397549
4809;Véloparc Terminus C5;Boulevard des Antilles;44000;440109;Nantes;Equipements vélo;Stationnement vélo;Accès libre;Nantes Métropole;5;7 jours sur 7. 24 h sur 24.;Consigne;https://www.tan.fr/;02 40 444 444;47,2030749648796;-1,57106210055004
4810;Véloparc Nefs;72 Boulevard de la Prairie au Duc;44000;440109;Nantes;Equipements vélo;Stationnement vélo;Accès libre;Nantes Métropole;4;7 jours sur 7. 24 h sur 24.;Consigne;https://www.tan.fr/;02 40 444 444;47,2041969586565;-1,56616893195696
4811;Véloparc République;Place de la République;44000;440109;Nantes;Equipements vélo;Stationnement vélo;Accès libre;Nantes Métropole;5;7 jours sur 7. 24 h sur 24.;Consigne;https://www.tan.fr/;02 40 444 444;47,2054870235548;-1,55402518483397
4812;Véloparc Estuaire;Boulevard de l'Estuaire;44000;440109;Nantes;Equipements vélo;Stationnement vélo;Accès libre;Nantes Métropole;2;7 jours sur 7. 24 h sur 24.;Consigne;https://www.tan.fr/;02 40 444 444;47,2046518654793;-1,55347806693278
4813;Véloparc Rondeau;Rue Gaëtan Rondeau;44000;440109;Nantes;Equipements vélo;Stationnement vélo;Accès libre;Nantes Métropole;5;7 jours sur 7. 24 h sur 24.;Consigne;https://www.tan.fr/;02 40 444 444;47,2067154027306;-1,53330100699943
4814;Véloparc Pompidou;9 Boulevard Georges Pompidou;44000;440109;Nantes;Equipements vélo;Stationnement vélo;Accès libre;Nantes Métropole;3;7 jours sur 7. 24 h sur 24.;Consigne;https://www.tan.fr/;02 40 444 444;47,2096989089444;-1,52688306609604
4815;Véloparc Erdre Active;19 Rue de la Bavière;44240;440035;La-Chapelle-sur-Erdre;Equipements vélo;Stationnement vélo;Gratuit par badge;Nantes Métropole;28;7 jours sur 7. 24 h sur 24.;collectif sécurisé;https://www.tan.fr/;02 40 444 444;47,2831992364226;-1,54510118861784
4816;Véloparc La Chapelle Centre;Rue de l'Erdre (entrée cimetière);44240;440035;La-Chapelle-sur-Erdre;Equipements vélo;Stationnement vélo;Gratuit par badge;Nantes Métropole;52;7 jours sur 7. 24 h sur 24.;collectif sécurisé;https://www.tan.fr/;02 40 444 444;47,2967086994232;-1,54644430351977
4817;Véloparc La Chapelle Aulnay;Av Gandonnière (P+R par rue du Manoir);44240;440035;La-Chapelle-sur-Erdre;Equipements vélo;Stationnement vélo;Gratuit par badge;Nantes Métropole;40;7 jours sur 7. 24 h sur 24.;collectif sécurisé;https://www.tan.fr/;02 40 444 444;47,308156276979;-1,54057348092828
4818;Véloparc Chat qui Guette;4 Rue du Chat qui Guette;44640;440166;Saint-Jean-de-Boiseau;Equipements vélo;Stationnement vélo;Accès libre;Nantes Métropole;4;7 jours sur 7. 24 h sur 24.;Consigne;https://www.tan.fr/;02 40 444 444;47,1918930115432;-1,69670853238009
9994;Véloparc Keren;Rue de Kéren;44300;440109;Nantes;Equipements vélo;Stationnement vélo;Accès libre;Nantes Métropole;4;7 jours sur 7. 24 h sur 24.;Consigne;https://www.tan.fr/;02 40 444 444;47,2424484776003;-1,53400727373513
9995;Véloparc Combattants d'Indochine;Rond-Point des Combattants d'Indochine;44300;440109;Nantes;Equipements vélo;Stationnement vélo;Accès libre;Nantes Métropole;4;7 jours sur 7. 24 h sur 24.;Consigne;https://www.tan.fr/;02 40 444 444;47,2448567083933;-1,53292145249854
9996;Véloparc Ecole centrale / Sup de co;1 Rue de la Noë;44300;440109;Nantes;Equipements vélo;Stationnement vélo;Accès libre;Nantes Métropole;8;7 jours sur 7. 24 h sur 24.;Consigne;https://www.tan.fr/;02 40 444 444;47,2483007918198;-1,55133822554646
9997;Véloparc Moulin Boiseau;Boulevard de l'Epinay;44470;440026;Carquefou;Equipements vélo;Stationnement vélo;Accès libre;Nantes Métropole;4;7 jours sur 7. 24 h sur 24.;Consigne;https://www.tan.fr/;02 40 444 444;47,2883262304367;-1,48380414406438
9998;Véloparc Rue de Chateaubriand;2 Rue du Marechal Foch;44470;440026;Carquefou;Equipements vélo;Stationnement vélo;Accès libre;Nantes Métropole;4;7 jours sur 7. 24 h sur 24.;Consigne;https://www.tan.fr/;02 40 444 444;47,3040652091942;-1,48525929968038
4610;Véloparc Pirmil;25 Rue Esnoult des Châtelets;44200;440109;Nantes;Equipements vélo;Stationnement vélo;Accès libre;Nantes Métropole;8;7 jours sur 7. 24 h sur 24.;Consigne;https://www.tan.fr/;02 40 444 444;47,1957981981634;-1,54346490376234
4611;Véloparc Pont Rousseau;Rue de la Gare;44400;440143;Rezé;Equipements vélo;Stationnement vélo;Gratuit par badge;Nantes Métropole;20;7 jours sur 7. 24 h sur 24.;collectif sécurisé;http://www.ter.sncf.com/pays-de-la-loire/;08 10 32 43 24;47,1925455510581;-1,54875226628812
4612;Véloparc 8 Mai;3 Rue Victor Hugo;44400;440143;Rezé;Equipements vélo;Stationnement vélo;Accès libre;Nantes Métropole;20;7 jours sur 7. 24 h sur 24.;Collectif abrité;https://www.tan.fr/;02 40 444 444;47,189225088926;-1,5518442182848
4613;Véloparc Trocardière;6 Avenue Léon Blum;44400;440143;Rezé;Equipements vélo;Stationnement vélo;Accès libre;Nantes Métropole;10;7 jours sur 7. 24 h sur 24.;Consigne;https://www.tan.fr/;02 40 444 444;47,1833774143391;-1,57029191851611
4614;Véloparc Grande Ouche;Impasse de la Boisselée;44340;440020;Bouguenais;Equipements vélo;Stationnement vélo;Accès libre;Nantes Métropole;10;7 jours sur 7. 24 h sur 24.;Consigne;https://www.tan.fr/;02 40 444 444;47,1817224604807;-1,57958862288985
4615;Véloparc Neustrie;Rue Christophe Colomb;44340;440020;Bouguenais;Equipements vélo;Stationnement vélo;Accès libre;Nantes Métropole;10;7 jours sur 7. 24 h sur 24.;Consigne;https://www.tan.fr/;02 40 444 444;47,1770829665086;-1,59312668658823
4617;Véloparc Gréneraie;1 Boulevard Emile Gabory;44200;440109;Nantes;Equipements vélo;Stationnement vélo;Accès libre;Nantes Métropole;20;7 jours sur 7. 24 h sur 24.;Collectif abrité;https://www.tan.fr/;02 40 444 444;47,1997403522979;-1,53317272421536
4618;Véloparc Gréneraie;1 Boulevard Emile Gabory;44200;440109;Nantes;Equipements vélo;Stationnement vélo;Gratuit par badge;Nantes Métropole;20;7 jours sur 7. 24 h sur 24.;collectif sécurisé;https://www.tan.fr/;02 40 444 444;47,1996721215657;-1,53310743182552
4619;Véloparc Mauvoisins;63 Rue de la Gilarderie;44200;440109;Nantes;Equipements vélo;Stationnement vélo;Accès libre;Nantes Métropole;8;7 jours sur 7. 24 h sur 24.;Consigne;https://www.tan.fr/;02 40 444 444;47,1902113662143;-1,52540149554347
4620;Véloparc Bourdonnières;61 Rue des Bourdonnières;44200;440109;Nantes;Equipements vélo;Stationnement vélo;Accès libre;Nantes Métropole;20;7 jours sur 7. 24 h sur 24.;Consigne;https://www.tan.fr/;02 40 444 444;47,1865465644797;-1,52134782557861
4622;Véloparc Porte de Vertou;Boulevard Auguste Priou;44120;440215;Vertou;Equipements vélo;Stationnement vélo;Accès libre;Nantes Métropole;10;7 jours sur 7. 24 h sur 24.;Consigne;https://www.tan.fr/;02 40 444 444;47,1806310934808;-1,50530479993814
4623;Véloparc Pas Enchantés;16 Rue du Docteur Paul Michaux;44230;440190;Saint-Sébastien-sur-Loire;Equipements vélo;Stationnement vélo;Accès libre;Nantes Métropole;10;7 jours sur 7. 24 h sur 24.;Collectif abrité;http://www.ter.sncf.com/pays-de-la-loire/;08 10 32 43 24;47,2066732361951;-1,51061580824369
4624;Véloparc Pas enchantés;16 Rue du Docteur Paul Michaux;44230;440190;Saint-Sébastien-sur-Loire;Equipements vélo;Stationnement vélo;Accès libre;Nantes Métropole;10;7 jours sur 7. 24 h sur 24.;Collectif abrité;http://www.ter.sncf.com/pays-de-la-loire/;08 10 32 43 24;47,2069031127285;-1,51125384645695
4625;Véloparc Frêne Rond;75 Rue de l'Ouche Quinet;44230;440190;Saint-Sébastien-sur-Loire;Equipements vélo;Stationnement vélo;Gratuit par badge;Nantes Métropole;10;7 jours sur 7. 24 h sur 24.;collectif sécurisé;http://www.ter.sncf.com/pays-de-la-loire/;08 10 32 43 24;47,1903041792141;-1,49603988548747
4626;Véloparc Frêne Rond;75 Rue de l'Ouche Quinet;44230;440190;Saint-Sébastien-sur-Loire;Equipements vélo;Stationnement vélo;Accès libre;Nantes Métropole;20;7 jours sur 7. 24 h sur 24.;Collectif abrité;http://www.ter.sncf.com/pays-de-la-loire/;08 10 32 43 24;47,190364294955;-1,49588749652743
4627;Véloparc Gare de Vertou;16 Rue du Bois Rigaud;44120;440215;Vertou;Equipements vélo;Stationnement vélo;Accès libre;Nantes Métropole;16;7 jours sur 7. 24 h sur 24.;Collectif abrité;http://www.ter.sncf.com/pays-de-la-loire/;08 10 32 43 24;47,1871764179109;-1,47805848962049
4628;Véloparc Gare de Vertou;16 Rue du Bois Rigaud;44120;440215;Vertou;Equipements vélo;Stationnement vélo;Gratuit par badge;Nantes Métropole;15;7 jours sur 7. 24 h sur 24.;collectif sécurisé;http://www.ter.sncf.com/pays-de-la-loire/;08 10 32 43 24;47,1858486168993;-1,47801431544503
4629;Parking Gare sud;4 Rue de Lourmel;44000;440109;Nantes;Equipements vélo;Stationnement vélo;Accès libre;Nantes Métropole;96;7 jours sur 7. 24 h sur 24.;Collectif abrité;https://www.resaplace.com/;02 40 74 23 05;47,2161850979805;-1,54167126556066
4630;Parking Gare sud;4 Rue de Lourmel;44000;440109;Nantes;Equipements vélo;Stationnement vélo;Gratuit par badge;Nantes Métropole;48;7 jours sur 7. 24 h sur 24.;collectif sécurisé;https://www.resaplace.com/;02 40 74 23 05;47,2161546650016;-1,54186774795315
4631;Parking Gare nord;51 Boulevard de Stalingrad;44000;440109;Nantes;Equipements vélo;Stationnement vélo;Accès libre;Nantes Métropole;50;7 jours sur 7. 24 h sur 24.;Collectif abrité;https://www.resaplace.com/;02 40 74 23 05;47,2173064933529;-1,54344400552645
4632;Véloparc Beaujoire;Rue Colette;44300;440109;Nantes;Equipements vélo;Stationnement vélo;Accès libre;Nantes Métropole;14;7 jours sur 7. 24 h sur 24.;Consigne;https://www.tan.fr/;02 40 444 444;47,2591873598768;-1,52566308281591
4633;Véloparc Gare de Mauves;2 Place de la Gare;44470;440094;Mauves-sur-Loire;Equipements vélo;Stationnement vélo;Accès libre;Nantes Métropole;6;7 jours sur 7. 24 h sur 24.;Consigne;https://www.tan.fr/;02 40 444 444;47,2930302642636;-1,38965342888177
4634;Véloparc Recteur Schmitt;34 Rue de la Bourgeonnière;44300;440109;Nantes;Equipements vélo;Stationnement vélo;Accès libre;Nantes Métropole;10;7 jours sur 7. 24 h sur 24.;Consigne;https://www.tan.fr/;02 40 444 444;47,25206180062;-1,5524888134172
4635;Véloparc Grand Val;Boulevard Mendès France;44700;440114;Orvault;Equipements vélo;Stationnement vélo;Accès libre;Nantes Métropole;10;7 jours sur 7. 24 h sur 24.;Consigne;https://www.tan.fr/;02 40 444 444;47,2618809236725;-1,59202310769683
4636;Véloparc Morlère Paquelais;94 Avenue de la Morlière;44700;440114;Orvault;Equipements vélo;Stationnement vélo;Accès libre;Nantes Métropole;10;7 jours sur 7. 24 h sur 24.;Consigne;https://www.tan.fr/;02 40 444 444;47,2477520504792;-1,60278901987683
4637;Véloparc Marcel Paul;73 Boulevard Marcel Paul;44800;440162;Saint-Herblain;Equipements vélo;Stationnement vélo;Accès libre;Nantes Métropole;16;7 jours sur 7. 24 h sur 24.;Collectif abrité;https://www.tan.fr/;02 40 444 444;47,245695909162;-1,61758063248526
4638;Véloparc Bignon;55 Rue des Verts Prés;44700;440114;Orvault;Equipements vélo;Stationnement vélo;Accès libre;Nantes Métropole;10;7 jours sur 7. 24 h sur 24.;Consigne;https://www.tan.fr/;02 40 444 444;47,2489561519406;-1,59789049093617
4639;Véloparc Plaisance;203 Route de Vannes;44800;440162;Saint-Herblain;Equipements vélo;Stationnement vélo;Accès libre;Nantes Métropole;6;7 jours sur 7. 24 h sur 24.;Collectif abrité;https://www.tan.fr/;02 40 444 444;47,2623915691058;-1,5844044179263
4640;Véloparc Neruda;Boulevard Salvador Allende;44800;440162;Saint-Herblain;Equipements vélo;Stationnement vélo;Accès libre;Nantes Métropole;10;7 jours sur 7. 24 h sur 24.;Consigne;https://www.tan.fr/;02 40 444 444;47,2179398953252;-1,61426165370435
4641;Véloparc Mitterrand;Boulevard Salvador Allende;44800;440162;Saint-Herblain;Equipements vélo;Stationnement vélo;Accès libre;Nantes Métropole;6;7 jours sur 7. 24 h sur 24.;Consigne;https://www.tan.fr/;02 40 444 444;47,2219438356381;-1,63953863242532
4642;Véloparc Place du vieux cimetiere;1 Place de la Poste;44470;440026;Carquefou;Equipements vélo;Stationnement vélo;Accès libre;Nantes Métropole;4;7 jours sur 7. 24 h sur 24.;Consigne;https://www.tan.fr/;02 40 444 444;47,2967663339907;-1,49175142200904
4643;Véoparc Hangar à Bananes;Boulevard des Antilles;44200;440109;Nantes;Equipements vélo;Stationnement vélo;Accès libre;Nantes Métropole;12;7 jours sur 7. 24 h sur 24.;Consigne;https://www.tan.fr/;02 40 444 444;47,1998976758326;-1,57282041883639
4644;Véloparc Pirmil;24 Rue Esnoult des Châtelets;44200;440109;Nantes;Equipements vélo;Stationnement vélo;Gratuit par badge;Nantes Métropole;20;7 jours sur 7. 24 h sur 24.;collectif sécurisé;https://www.tan.fr/;02 40 444 444;47,196591294791;-1,54258769083711
4645;Véloparc Pirmil;24 Rue Esnoult des Châtelets;44200;440109;Nantes;Equipements vélo;Stationnement vélo;Accès libre;Nantes Métropole;20;7 jours sur 7. 24 h sur 24.;Collectif abrité;https://www.tan.fr/;02 40 444 444;47,1964350327837;-1,54289743545996
4646;Véloparc Maraïchers;Rue de la Grand' Maison;44120;440215;Vertou;Equipements vélo;Stationnement vélo;Accès libre;Nantes Métropole;4;7 jours sur 7. 24 h sur 24.;Consigne;https://www.tan.fr/;02 40 444 444;47,1850494827108;-1,51069490053269
4647;Véloparc Vertou gare routière;2 Rue de l'Hôpital;44120;440215;Vertou;Equipements vélo;Stationnement vélo;Accès libre;Nantes Métropole;4;7 jours sur 7. 24 h sur 24.;Consigne;https://www.tan.fr/;02 40 444 444;47,1688875533168;-1,47124091965104
4648;Véloparc 3 Moulins;125 Rue Aristide Briand;44400;440143;Rezé;Equipements vélo;Stationnement vélo;Accès libre;Nantes Métropole;4;7 jours sur 7. 24 h sur 24.;Consigne;https://www.tan.fr/;02 40 444 444;47,1782613949234;-1,54414760060643
4649;Véloparc Place de la Mairie;49 Rue Georges Clemenceau;44840;440198;Les Sorinières;Equipements vélo;Stationnement vélo;Accès libre;Nantes Métropole;8;7 jours sur 7. 24 h sur 24.;Consigne;https://www.tan.fr/;02 40 444 444;47,1485771482426;-1,5311923911134
4650;Véloparc Diderot;1 Place Lucien Le Meut;44400;440143;Rezé;Equipements vélo;Stationnement vélo;Accès libre;Nantes Métropole;4;7 jours sur 7. 24 h sur 24.;Consigne;https://www.tan.fr/;02 40 444 444;47,1842394693886;-1,56267848853425
4651;Véloparc Gare de Thouaré;Rue des Ponts;44470;440204;Thouaré-sur-Loire;Equipements vélo;Stationnement vélo;Accès libre;Nantes Métropole;24;7 jours sur 7. 24 h sur 24.;Collectif abrité;https://www.tan.fr/;02 40 444 444;47,2649902250913;-1,44112172521562
4652;Véloparc Haluchère;27 Rue du Ranzai;44300;440109;Nantes;Equipements vélo;Stationnement vélo;Gratuit par badge;Nantes Métropole;30;7 jours sur 7. 24 h sur 24.;collectif sécurisé;https://www.tan.fr/;02 40 444 444;47,2499302800357;-1,52329504806882
4653;Véloparc Haluchère;15 Rue de la Petite Baratte;44300;440109;Nantes;Equipements vélo;Stationnement vélo;Accès libre;Nantes Métropole;20;7 jours sur 7. 24 h sur 24.;Collectif abrité;https://www.tan.fr/;02 40 444 444;47,2493239290813;-1,52351731628185
4654;Véloparc Ranzay;Route de Saint Joseph;44300;440109;Nantes;Equipements vélo;Stationnement vélo;Gratuit par badge;Nantes Métropole;20;7 jours sur 7. 24 h sur 24.;collectif sécurisé;https://www.tan.fr/;02 40 444 444;47,2530223711641;-1,53010645631533
4655;Véloparc Babinière;Avenue de la Babinière;44240;440035;La-Chapelle-sur-Erdre;Equipements vélo;Stationnement vélo;Gratuit par badge;Nantes Métropole;50;7 jours sur 7. 24 h sur 24.;collectif sécurisé;https://www.tan.fr/;02 40 444 444;47,2591210062983;-1,54570457157977
4659;Véloparc René Cassin;1 Boulevard René Cassin;44300;440109;Nantes;Equipements vélo;Stationnement vélo;Accès libre;Nantes Métropole;10;7 jours sur 7. 24 h sur 24.;Consigne;https://www.tan.fr/;02 40 444 444;47,2641310953292;-1,57525342982189
4660;Véloparc Bout des Pavés;2 Rue Alberto Giacometti;44700;440114;Orvault;Equipements vélo;Stationnement vélo;Accès libre;Nantes Métropole;6;7 jours sur 7. 24 h sur 24.;Consigne;https://www.tan.fr/;02 40 444 444;47,2624642244533;-1,57728200307714
4661;Véloparc Pont du Cens;21 Route de Rennes;44300;440109;Nantes;Equipements vélo;Stationnement vélo;Accès libre;Nantes Métropole;4;7 jours sur 7. 24 h sur 24.;Consigne;https://www.tan.fr/;02 40 444 444;47,2487488717167;-1,57694781744934
4662;Véloparc Place Eglise;Place de l'Eglise;44700;440114;Orvault;Equipements vélo;Stationnement vélo;Accès libre;Nantes Métropole;4;7 jours sur 7. 24 h sur 24.;Consigne;https://www.tan.fr/;02 40 444 444;47,2709528785161;-1,62362612201397
4663;Véloparc Sautron terminus;8 Rue de la Ferme;44880;440194;Sautron;Equipements vélo;Stationnement vélo;Accès libre;Nantes Métropole;4;7 jours sur 7. 24 h sur 24.;Consigne;https://www.tan.fr/;02 40 444 444;47,2643013727743;-1,67954137543637
4664;Véloparc Rue du Grignon;Rue du Grignon;44115;440009;Basse-Goulaine;Equipements vélo;Stationnement vélo;Accès libre;Nantes Métropole;6;7 jours sur 7. 24 h sur 24.;Consigne;https://www.tan.fr/;02 40 444 444;47,2165826439858;-1,46662844042804
4665;Véloparc Le Pellerin terminus ligne express;1D Place du Champ de Foire;44640;440120;Le Pellerin;Equipements vélo;Stationnement vélo;Accès libre;Nantes Métropole;4;7 jours sur 7. 24 h sur 24.;Consigne;https://www.tan.fr/;02 40 444 444;47,2016906522285;-1,75914777165346
4666;Véloparc Bois Raguenet;RD 42;44700;440114;Orvault;Equipements vélo;Stationnement vélo;Accès libre;Nantes Métropole;10;7 jours sur 7. 24 h sur 24.;Consigne;https://www.tan.fr/;02 40 444 444;47,2666841936055;-1,60019286945204
4667;Véloparc Mairie Doulon;39 Boulevard Louis Millet;44300;440109;Nantes;Equipements vélo;Stationnement vélo;Accès libre;Nantes Métropole;6;7 jours sur 7. 24 h sur 24.;Consigne;https://www.tan.fr/;02 40 444 444;47,2272624698571;-1,51864645980369
4668;Véloparc Clos Toreau;31 Boulevard Emile Gabory;44200;440109;Nantes;Equipements vélo;Stationnement vélo;Accès libre;Nantes Métropole;4;7 jours sur 7. 24 h sur 24.;Consigne;https://www.tan.fr/;02 40 444 444;47,1940516820235;-1,52885905186375
